NORAD_CAT_ID,OBJECT_NAME,OBJECT_TYPE,EPOCH,MEAN_MOTION,ECCENTRICITY,INCLINATION,RA_OF_ASC_NODE,ARG_OF_PERICENTER,MEAN_ANOMALY,BSTAR,MEAN_MOTION_DOT,MEAN_MOTION_DDOT,TLE_LINE0,TLE_LINE1,TLE_LINE2,SEMIMAJOR_AXIS,PERIOD,APOGEE,PERIGEE,DECAYED
53137.0,STARLINK-4145,PAYLOAD,2024-03-11 15:01:56,15.08842751,1.68e-05,53.2183,202.5218,102.7917,257.3094,0.00014541,2.028e-05,0.0,0 STARLINK-4145,1 53137U 22083F   24071.62635258  .00002028  00000-0  14541-3 0  9995,2 53137  53.2183 202.5218 0000168 102.7917 257.3094 15.08842751 91309,6917.872,95.437,539.853,539.621,0.0
53137.0,STARLINK-4145,PAYLOAD,2024-03-12 11:41:58,15.08820618,3.88e-05,53.2172,198.6571,118.5569,241.5463,0.00037131,5.624e-05,0.0,0 STARLINK-4145,1 53137U 22083F   24072.48748368  .00005624  00000-0  37131-3 0  9992,2 53137  53.2172 198.6571 0000388 118.5569 241.5463 15.08820618 92063,6917.94,95.439,540.073,539.536,0.0
53137.0,STARLINK-4145,PAYLOAD,2024-03-12 18:03:30,15.08840543,0.0001599,53.2142,197.4662,100.6576,259.4596,9.5062e-05,1.225e-05,0.0,0 STARLINK-4145,1 53137U 22083F   24072.75243879  .00001225  00000-0  95062-4 0  9990,2 53137  53.2142 197.4662 0001599 100.6576 259.4596 15.08840543 91471,6917.879,95.438,540.85,538.638,0.0
53137.0,STARLINK-4145,PAYLOAD,2024-03-13 11:32:45,15.08832017,8.42e-05,53.2162,194.1967,71.4762,288.6322,-0.00011313,-2.087e-05,0.0,0 STARLINK-4145,1 53137U 22083F   24073.48108013 -.00002087  00000-0 -11313-3 0  9996,2 53137  53.2162 194.1967 0000842  71.4762 288.6322 15.08832017 92218,6917.905,95.438,540.352,539.187,0.0
53137.0,STARLINK-4145,PAYLOAD,2024-03-13 14:43:31,15.08832021,0.0001071,53.2173,193.6021,96.4424,263.669,-0.00011236,-2.075e-05,0.0,0 STARLINK-4145,1 53137U 22083F   24073.61356024 -.00002075  00000-0 -11236-3 0  9999,2 53137  53.2173 193.6021 0001071  96.4424 263.6690 15.08832021 91600,6917.905,95.438,540.511,539.029,0.0
53137.0,STARLINK-4145,PAYLOAD,2024-03-14 11:23:32,15.0883429,0.0001322,53.2177,189.7373,98.2193,261.895,-1.4623e-05,-5.21e-06,0.0,0 STARLINK-4145,1 53137U 22083F   24074.47467890 -.00000521  00000-0 -14623-4 0  9996,2 53137  53.2177 189.7373 0001322  98.2193 261.8950 15.08834290 92365,6917.898,95.438,540.677,538.848,0.0
53137.0,STARLINK-4145,PAYLOAD,2024-03-15 11:14:19,15.0882527,0.0001337,53.2183,185.2772,97.7461,262.3683,0.00012766,1.744e-05,0.0,0 STARLINK-4145,1 53137U 22083F   24075.46828166  .00001744  00000-0  12766-3 0  9994,2 53137  53.2183 185.2772 0001337  97.7461 262.3683 15.08825270 91887,6917.925,95.438,540.715,538.865,0.0
53137.0,STARLINK-4145,PAYLOAD,2024-03-16 12:40:30,15.08833108,0.0001279,53.2165,180.5207,89.8817,270.2322,7.3435e-05,8.81e-06,0.0,0 STARLINK-4145,1 53137U 22083F   24076.52812759  .00000881  00000-0  73435-4 0  9995,2 53137  53.2165 180.5207 0001279  89.8817 270.2322 15.08833108 92675,6917.901,95.438,540.651,538.882,0.0
53137.0,STARLINK-4145,PAYLOAD,2024-03-16 14:15:53,15.08834331,0.0001281,53.2167,180.2237,88.0773,272.0366,8.2614e-05,1.027e-05,0.0,0 STARLINK-4145,1 53137U 22083F   24076.59436702  .00001027  00000-0  82614-4 0  9994,2 53137  53.2167 180.2237 0001281  88.0773 272.0366 15.08834331 92051,6917.898,95.438,540.649,538.877,0.0
53137.0,STARLINK-4145,PAYLOAD,2024-03-16 15:51:16,15.08836006,0.0001399,53.2173,179.9265,101.7405,258.3744,9.3754e-05,1.204e-05,0.0,0 STARLINK-4145,1 53137U 22083F   24076.66060545  .00001204  00000-0  93754-4 0  9994,2 53137  53.2173 179.9265 0001399 101.7405 258.3744 15.08836006 92068,6917.893,95.438,540.725,538.79,0.0
53137.0,STARLINK-4145,PAYLOAD,2024-03-17 12:31:17,15.08828942,0.0001304,53.2161,176.0563,113.817,246.2959,-2.1037e-06,-3.21e-06,0.0,0 STARLINK-4145,1 53137U 22083F   24077.52173572 -.00000321  00000-0 -21037-5 0  9992,2 53137  53.2161 176.0563 0001304 113.8170 246.2959 15.08828942 92821,6917.914,95.438,540.681,538.877,0.0
53137.0,STARLINK-4145,PAYLOAD,2024-03-17 14:06:40,15.08829768,0.0001395,53.218,175.759,136.0871,224.0232,6.7551e-06,-1.8e-06,0.0,0 STARLINK-4145,1 53137U 22083F   24077.58797385 -.00000180  00000-0  67551-5 0  9995,2 53137  53.2180 175.7590 0001395 136.0871 224.0232 15.08829768 92200,6917.912,95.438,540.742,538.812,0.0
53137.0,STARLINK-4145,PAYLOAD,2024-03-18 12:22:04,15.08842407,0.0001563,53.2187,171.604,73.4288,286.6876,8.3677e-05,1.044e-05,0.0,0 STARLINK-4145,1 53137U 22083F   24078.51533206  .00001044  00000-0  83677-4 0  9994,2 53137  53.2187 171.6040 0001563  73.4288 286.6876 15.08842407 92972,6917.873,95.437,540.819,538.657,0.0
53137.0,STARLINK-4145,PAYLOAD,2024-03-19 12:12:51,15.08846299,0.0001934,53.2168,167.1432,49.2549,310.8611,0.00028737,4.289e-05,0.0,0 STARLINK-4145,1 53137U 22083F   24079.50892395  .00004289  00000-0  28737-3 0  9990,2 53137  53.2168 167.1432 0001934  49.2549 310.8611 15.08846299 92496,6917.861,95.437,541.064,538.388,0.0
53137.0,STARLINK-4145,PAYLOAD,2024-03-19 13:48:13,15.08854792,0.000158,53.2175,166.8417,76.5139,283.6029,0.0002813,4.193e-05,0.0,0 STARLINK-4145,1 53137U 22083F   24079.57515648  .00004193  00000-0  28130-3 0  9991,2 53137  53.2175 166.8417 0001580  76.5139 283.6029 15.08854792 93137,6917.835,95.437,540.793,538.607,0.0
53137.0,STARLINK-4145,PAYLOAD,2024-03-20 10:28:15,15.08846196,0.0001684,53.2161,162.97,130.7061,229.4078,-0.00010648,-1.983e-05,0.0,0 STARLINK-4145,1 53137U 22083F   24080.43628858 -.00001983  00000-0 -10648-3 0  9997,2 53137  53.2161 162.9700 0001684 130.7061 229.4078 15.08846196 93261,6917.861,95.437,540.891,538.561,0.0
53137.0,STARLINK-4145,PAYLOAD,2024-03-21 11:54:25,15.08849005,0.0001269,53.2159,158.2183,90.115,269.9987,6.888e-05,8.09e-06,0.0,0 STARLINK-4145,1 53137U 22083F   24081.49612638  .00000809  00000-0  68880-4 0  9999,2 53137  53.2159 158.2183 0001269  90.1150 269.9987 15.08849005 93426,6917.853,95.437,540.596,538.84,0.0
53137.0,STARLINK-4145,PAYLOAD,2024-03-22 11:45:11,15.08859247,0.0001568,53.2171,153.7609,95.6102,264.507,0.0004654,7.13e-05,0.0,0 STARLINK-4145,1 53137U 22083F   24082.48972172  .00007130  00000-0  46540-3 0  9993,2 53137  53.2171 153.7609 0001568  95.6102 264.5070 15.08859247 92941,6917.822,95.436,540.771,538.602,0.0
53137.0,STARLINK-4145,PAYLOAD,2024-03-23 05:14:27,15.08829749,0.0001634,53.2171,150.4893,100.9167,259.2009,-0.00022956,-3.939e-05,0.0,0 STARLINK-4145,1 53137U 22083F   24083.21837426 -.00003939  00000-0 -22956-3 0  9997,2 53137  53.2171 150.4893 0001634 100.9167 259.2009 15.08829749 93684,6917.912,95.438,540.907,538.646,0.0
53137.0,STARLINK-4145,PAYLOAD,2024-03-23 21:08:19,15.08831493,0.0001499,53.2167,147.5149,91.0536,269.0628,-1.7535e-05,-5.67e-06,0.0,0 STARLINK-4145,1 53137U 22083F   24083.88077946 -.00000567  00000-0 -17535-4 0  9995,2 53137  53.2167 147.5149 0001499  91.0536 269.0628 15.08831493 93156,6917.906,95.438,540.808,538.734,0.0
53137.0,STARLINK-4145,PAYLOAD,2024-03-24 11:26:47,15.08842996,0.0001822,53.2165,144.8389,86.9253,273.1948,0.0010737,0.00016843,0.0,0 STARLINK-4145,1 53137U 22083F   24084.47694358  .00016843  00000-0  10737-2 0  9990,2 53137  53.2165 144.8389 0001822  86.9253 273.1948 15.08842996 93879,6917.871,95.437,540.997,538.476,0.0
53137.0,STARLINK-4145,PAYLOAD,2024-03-24 20:59:06,15.08853787,0.000149,53.2158,143.0506,92.7764,267.3398,0.0012182,0.0001916,0.0,0 STARLINK-4145,1 53137U 22083F   24084.87438323  .00019160  00000-0  12182-2 0  9993,2 53137  53.2158 143.0506 0001490  92.7764 267.3398 15.08853787 93308,6917.838,95.437,540.734,538.672,0.0
53137.0,STARLINK-4145,PAYLOAD,2024-03-25 11:17:34,15.08849213,0.0001564,53.216,140.3748,90.5702,269.5469,0.00047932,7.351e-05,0.0,0 STARLINK-4145,1 53137U 22083F   24085.47054240  .00007351  00000-0  47932-3 0  9993,2 53137  53.2160 140.3748 0001564  90.5702 269.5469 15.08849213 94021,6917.852,95.437,540.799,538.635,0.0
53137.0,STARLINK-4145,PAYLOAD,2024-03-25 20:49:53,15.08848794,0.0001695,53.2159,138.5929,72.0873,288.0304,0.00034788,5.254e-05,0.0,0 STARLINK-4145,1 53137U 22083F   24085.86798253  .00005254  00000-0  34788-3 0  9990,2 53137  53.2159 138.5929 0001695  72.0873 288.0304 15.08848794 93451,6917.854,95.437,540.891,538.546,0.0
53137.0,STARLINK-4145,PAYLOAD,2024-03-26 03:11:26,15.08845718,0.0001683,53.2139,137.4046,75.3783,284.7395,0.00023448,3.446e-05,0.0,0 STARLINK-4145,1 53137U 22083F   24086.13294268  .00003446  00000-0  23448-3 0  9990,2 53137  53.2139 137.4046 0001683  75.3783 284.7395 15.08845718 94121,6917.863,95.437,540.892,538.564,0.0
53137.0,STARLINK-4145,PAYLOAD,2024-03-26 09:32:58,15.08841656,0.0001366,53.2146,136.2122,83.2389,276.8759,0.00017309,2.468e-05,0.0,0 STARLINK-4145,1 53137U 22083F   24086.39790405  .00002468  00000-0  17309-3 0  9994,2 53137  53.2146 136.2122 0001366  83.2389 276.8759 15.08841656 93536,6917.875,95.437,540.685,538.795,0.0
53137.0,STARLINK-4145,PAYLOAD,2024-03-27 12:34:31,15.08855923,0.0001321,53.2143,131.1564,81.0997,279.0144,0.00029643,4.435e-05,0.0,0 STARLINK-4145,1 53137U 22083F   24087.52397510  .00004435  00000-0  29643-3 0  9990,2 53137  53.2143 131.1564 0001321  81.0997 279.0144 15.08855923 94333,6917.832,95.437,540.611,538.783,0.0
53137.0,STARLINK-4145,PAYLOAD,2024-03-28 02:53:00,15.08839805,0.0001308,53.2139,128.4804,75.0167,285.097,0.00010486,1.381e-05,0.0,0 STARLINK-4145,1 53137U 22083F   24088.12014201  .00001381  00000-0  10486-3 0  9992,2 53137  53.2139 128.4804 0001308  75.0167 285.0970 15.08839805 94426,6917.881,95.438,540.651,538.841,0.0
53137.0,STARLINK-4145,PAYLOAD,2024-03-28 09:14:32,15.08844812,0.0001335,53.2141,127.2906,82.9957,277.1187,0.00015677,2.208e-05,0.0,0 STARLINK-4145,1 53137U 22083F   24088.38509986  .00002208  00000-0  15677-3 0  9995,2 53137  53.2141 127.2906 0001335  82.9957 277.1187 15.08844812 93833,6917.866,95.437,540.654,538.807,0.0
53137.0,STARLINK-4145,PAYLOAD,2024-03-29 09:05:19,15.08847852,0.000144,53.2149,122.8293,89.2825,270.8333,0.00025384,3.755e-05,0.0,0 STARLINK-4145,1 53137U 22083F   24089.37869831  .00003755  00000-0  25384-3 0  9997,2 53137  53.2149 122.8293 0001440  89.2825 270.8333 15.08847852 94619,6917.856,95.437,540.718,538.725,0.0
